ONEWEB-0136             
1 47282U 20100AA  26151.03820001 -.00000173  00000+0 -51525-3 0  9998
2 47282  87.8953 354.0603 0001468  90.0057 270.1240 13.12441383262417
ONEWEB-0137             
1 47283U 20100AB  26151.07208602  .00000097  00000+0  23436-3 0  9993
2 47283  87.8957 354.0628 0001920  89.6877 270.4471 13.12444426262326
ONEWEB-0138             
1 47284U 20100AC  26151.05005859 -.00000362  00000+0 -10408-2 0  9992
2 47284  87.8952 354.0731 0001561  90.1846 269.9461 13.12442668262408
ONEWEB-0139             
1 47285U 20100AD  26151.09086988  .00000532  00000+0  14442-2 0  9998
2 47285  87.8953 354.0518 0001761  89.3297 270.8033 13.12444067262484
ONEWEB-0140             
1 47286U 20100AE  26150.96873797 -.00000330  00000+0 -95145-3 0  9994
2 47286  87.8955 354.0665 0001769  82.7416 277.3913 13.12441892262435
ONEWEB-0141             
1 47287U 20100AF  26151.09059310  .00000502  00000+0  13600-2 0  9991
2 47287  87.8953 354.0476 0002058  93.6862 266.4502 13.12443346262431
ONEWEB-0142             
1 47288U 20100AG  26151.07901315  .00000331  00000+0  88438-3 0  9993
2 47288  87.8946 354.0723 0001859 101.3260 258.8077 13.12443397262423
ONEWEB-0143             
1 47289U 20100AH  26151.08903534  .00000449  00000+0  12124-2 0  9998
2 47289  87.8953 354.0680 0001822  88.6178 271.5159 13.12443287262408
ONEWEB-0144             
1 47290U 20100AJ  26151.06022166 -.00000273  00000+0 -79405-3 0  9994
2 47290  87.8958 354.0471 0001604  97.9533 262.1777 13.12443296262322
ONEWEB-0145             
1 47291U 20100AK  26151.03142975  .00000087  00000+0  20609-3 0  9996
2 47291  87.8946 354.0823 0001758  92.8034 267.3296 13.12441622262516
ONEWEB-0146             
1 47292U 20100AL  26151.02804497  .00000246  00000+0  64789-3 0  9994
2 47292  87.8952 354.0736 0001957  79.1184 281.0165 13.12441386262427
ONEWEB-0147             
1 47293U 20100AM  26151.07039258  .00000058  00000+0  12634-3 0  9998
2 47293  87.8954 354.0469 0001668  84.8572 275.2747 13.12444562262325
ONEWEB-0115             
1 48042U 21025A   26150.95957544 -.00000224  00000+0 -64746-3 0  9999
2 48042  87.8945 323.6544 0001802  90.6844 269.4492 13.13468728251333
ONEWEB-0152             
1 48043U 21025B   26150.97311718 -.00000280  00000+0 -80236-3 0  9993
2 48043  87.8947 323.6480 0001810  88.7488 271.3849 13.13469513251292
ONEWEB-0153             
1 48044U 21025C   26150.95111316 -.00000044  00000+0 -15448-3 0  9995
2 48044  87.8942 323.6565 0001792  95.0051 265.1283 13.13468947251280
ONEWEB-0154             
1 48045U 21025D   26150.94772274  .00000064  00000+0  13905-3 0  9997
2 48045  87.8942 323.6545 0001715  91.8043 268.3282 13.13468329251243
