[{"OBJECT_NAME":"ONEWEB-0136","OBJECT_ID":"2020-100AA","EPOCH":"2026-05-31T00:55:00.480864","MEAN_MOTION":13.12441383,"ECCENTRICITY":0.0001468,"INCLINATION":87.8953,"RA_OF_ASC_NODE":354.0603,"ARG_OF_PERICENTER":90.0057,"MEAN_ANOMALY":270.124,"EPHEMERIS_TYPE":0,"CLASSIFICATION_TYPE":"U","NORAD_CAT_ID":47282,"ELEMENT_SET_NO":999,"REV_AT_EPOCH":26241,"BSTAR":-0.00051525,"MEAN_MOTION_DOT":-1.73e-06,"MEAN_MOTION_DDOT":0.0},{"OBJECT_NAME":"ONEWEB-0137","OBJECT_ID":"2020-100AB","EPOCH":"2026-05-31T01:43:48.232128","MEAN_MOTION":13.12444426,"ECCENTRICITY":0.000192,"INCLINATION":87.8957,"RA_OF_ASC_NODE":354.0628,"ARG_OF_PERICENTER":89.6877,"MEAN_ANOMALY":270.4471,"EPHEMERIS_TYPE":0,"CLASSIFICATION_TYPE":"U","NORAD_CAT_ID":47283,"ELEMENT_SET_NO":999,"REV_AT_EPOCH":26232,"BSTAR":0.00023436000000000003,"MEAN_MOTION_DOT":9.7e-07,"MEAN_MOTION_DDOT":0.0},{"OBJECT_NAME":"ONEWEB-0138","OBJECT_ID":"2020-100AC","EPOCH":"2026-05-31T01:12:05.062176","MEAN_MOTION":13.12442668,"ECCENTRICITY":0.0001561,"INCLINATION":87.8952,"RA_OF_ASC_NODE":354.0731,"ARG_OF_PERICENTER":90.1846,"MEAN_ANOMALY":269.9461,"EPHEMERIS_TYPE":0,"CLASSIFICATION_TYPE":"U","NORAD_CAT_ID":47284,"ELEMENT_SET_NO":999,"REV_AT_EPOCH":26240,"BSTAR":-0.0010408000000000001,"MEAN_MOTION_DOT":-3.62e-06,"MEAN_MOTION_DDOT":0.0},{"OBJECT_NAME":"ONEWEB-0139","OBJECT_ID":"2020-100AD","EPOCH":"2026-05-31T02:10:51.157632","MEAN_MOTION":13.12444067,"ECCENTRICITY":0.0001761,"INCLINATION":87.8953,"RA_OF_ASC_NODE":354.0518,"ARG_OF_PERICENTER":89.3297,"MEAN_ANOMALY":270.8033,"EPHEMERIS_TYPE":0,"CLASSIFICATION_TYPE":"U","NORAD_CAT_ID":47285,"ELEMENT_SET_NO":999,"REV_AT_EPOCH":26248,"BSTAR":0.0014441999999999999,"MEAN_MOTION_DOT":5.32e-06,"MEAN_MOTION_DDOT":0.0},{"OBJECT_NAME":"ONEWEB-0140","OBJECT_ID":"2020-100AE","EPOCH":"2026-05-30T23:14:58.960608","MEAN_MOTION":13.12441892,"ECCENTRICITY":0.0001769,"INCLINATION":87.8955,"RA_OF_ASC_NODE":354.0665,"ARG_OF_PERICENTER":82.7416,"MEAN_ANOMALY":277.3913,"EPHEMERIS_TYPE":0,"CLASSIFICATION_TYPE":"U","NORAD_CAT_ID":47286,"ELEMENT_SET_NO":999,"REV_AT_EPOCH":26243,"BSTAR":-0.0009514500000000001,"MEAN_MOTION_DOT":-3.3e-06,"MEAN_MOTION_DDOT":0.0},{"OBJECT_NAME":"ONEWEB-0141","OBJECT_ID":"2020-100AF","EPOCH":"2026-05-31T02:10:27.243840","MEAN_MOTION":13.12443346,"ECCENTRICITY":0.0002058,"INCLINATION":87.8953,"RA_OF_ASC_NODE":354.0476,"ARG_OF_PERICENTER":93.6862,"MEAN_ANOMALY":266.4502,"EPHEMERIS_TYPE":0,"CLASSIFICATION_TYPE":"U","NORAD_CAT_ID":47287,"ELEMENT_SET_NO":999,"REV_AT_EPOCH":26243,"BSTAR":0.00136,"MEAN_MOTION_DOT":5.02e-06,"MEAN_MOTION_DDOT":0.0},{"OBJECT_NAME":"ONEWEB-0142","OBJECT_ID":"2020-100AG","EPOCH":"2026-05-31T01:53:46.736160","MEAN_MOTION":13.12443397,"ECCENTRICITY":0.0001859,"INCLINATION":87.8946,"RA_OF_ASC_NODE":354.0723,"ARG_OF_PERICENTER":101.326,"MEAN_ANOMALY":258.8077,"EPHEMERIS_TYPE":0,"CLASSIFICATION_TYPE":"U","NORAD_CAT_ID":47288,"ELEMENT_SET_NO":999,"REV_AT_EPOCH":26242,"BSTAR":0.00088438,"MEAN_MOTION_DOT":3.31e-06,"MEAN_MOTION_DDOT":0.0},{"OBJECT_NAME":"ONEWEB-0143","OBJECT_ID":"2020-100AH","EPOCH":"2026-05-31T02:08:12.653376","MEAN_MOTION":13.12443287,"ECCENTRICITY":0.0001822,"INCLINATION":87.8953,"RA_OF_ASC_NODE":354.068,"ARG_OF_PERICENTER":88.6178,"MEAN_ANOMALY":271.5159,"EPHEMERIS_TYPE":0,"CLASSIFICATION_TYPE":"U","NORAD_CAT_ID":47289,"ELEMENT_SET_NO":999,"REV_AT_EPOCH":26240,"BSTAR":0.0012124,"MEAN_MOTION_DOT":4.49e-06,"MEAN_MOTION_DDOT":0.0},{"OBJECT_NAME":"ONEWEB-0144","OBJECT_ID":"2020-100AJ","EPOCH":"2026-05-31T01:26:43.151424","MEAN_MOTION":13.12443296,"ECCENTRICITY":0.0001604,"INCLINATION":87.8958,"RA_OF_ASC_NODE":354.0471,"ARG_OF_PERICENTER":97.9533,"MEAN_ANOMALY":262.1777,"EPHEMERIS_TYPE":0,"CLASSIFICATION_TYPE":"U","NORAD_CAT_ID":47290,"ELEMENT_SET_NO":999,"REV_AT_EPOCH":26232,"BSTAR":-0.00079405,"MEAN_MOTION_DOT":-2.73e-06,"MEAN_MOTION_DDOT":0.0},{"OBJECT_NAME":"ONEWEB-0145","OBJECT_ID":"2020-100AK","EPOCH":"2026-05-31T00:45:15.530400","MEAN_MOTION":13.12441622,"ECCENTRICITY":0.0001758,"INCLINATION":87.8946,"RA_OF_ASC_NODE":354.0823,"ARG_OF_PERICENTER":92.8034,"MEAN_ANOMALY":267.3296,"EPHEMERIS_TYPE":0,"CLASSIFICATION_TYPE":"U","NORAD_CAT_ID":47291,"ELEMENT_SET_NO":999,"REV_AT_EPOCH":26251,"BSTAR":0.00020609,"MEAN_MOTION_DOT":8.7e-07,"MEAN_MOTION_DDOT":0.0},{"OBJECT_NAME":"ONEWEB-0146","OBJECT_ID":"2020-100AL","EPOCH":"2026-05-31T00:40:23.085408","MEAN_MOTION":13.12441386,"ECCENTRICITY":0.0001957,"INCLINATION":87.8952,"RA_OF_ASC_NODE":354.0736,"ARG_OF_PERICENTER":79.1184,"MEAN_ANOMALY":281.0165,"EPHEMERIS_TYPE":0,"CLASSIFICATION_TYPE":"U","NORAD_CAT_ID":47292,"ELEMENT_SET_NO":999,"REV_AT_EPOCH":26242,"BSTAR":0.00064789,"MEAN_MOTION_DOT":2.46e-06,"MEAN_MOTION_DDOT":0.0},{"OBJECT_NAME":"ONEWEB-0147","OBJECT_ID":"2020-100AM","EPOCH":"2026-05-31T01:41:21.918912","MEAN_MOTION":13.12444562,"ECCENTRICITY":0.0001668,"INCLINATION":87.8954,"RA_OF_ASC_NODE":354.0469,"ARG_OF_PERICENTER":84.8572,"MEAN_ANOMALY":275.2747,"EPHEMERIS_TYPE":0,"CLASSIFICATION_TYPE":"U","NORAD_CAT_ID":47293,"ELEMENT_SET_NO":999,"REV_AT_EPOCH":26232,"BSTAR":0.00012634,"MEAN_MOTION_DOT":5.8e-07,"MEAN_MOTION_DDOT":0.0},{"OBJECT_NAME":"ONEWEB-0115","OBJECT_ID":"2021-025A","EPOCH":"2026-05-30T23:01:47.318016","MEAN_MOTION":13.13468728,"ECCENTRICITY":0.0001802,"INCLINATION":87.8945,"RA_OF_ASC_NODE":323.6544,"ARG_OF_PERICENTER":90.6844,"MEAN_ANOMALY":269.4492,"EPHEMERIS_TYPE":0,"CLASSIFICATION_TYPE":"U","NORAD_CAT_ID":48042,"ELEMENT_SET_NO":999,"REV_AT_EPOCH":25133,"BSTAR":-0.0006474600000000001,"MEAN_MOTION_DOT":-2.24e-06,"MEAN_MOTION_DDOT":0.0},{"OBJECT_NAME":"ONEWEB-0152","OBJECT_ID":"2021-025B","EPOCH":"2026-05-30T23:21:17.324352","MEAN_MOTION":13.13469513,"ECCENTRICITY":0.000181,"INCLINATION":87.8947,"RA_OF_ASC_NODE":323.648,"ARG_OF_PERICENTER":88.7488,"MEAN_ANOMALY":271.3849,"EPHEMERIS_TYPE":0,"CLASSIFICATION_TYPE":"U","NORAD_CAT_ID":48043,"ELEMENT_SET_NO":999,"REV_AT_EPOCH":25129,"BSTAR":-0.00080236,"MEAN_MOTION_DOT":-2.8e-06,"MEAN_MOTION_DDOT":0.0},{"OBJECT_NAME":"ONEWEB-0153","OBJECT_ID":"2021-025C","EPOCH":"2026-05-30T22:49:36.177024","MEAN_MOTION":13.13468947,"ECCENTRICITY":0.0001792,"INCLINATION":87.8942,"RA_OF_ASC_NODE":323.6565,"ARG_OF_PERICENTER":95.0051,"MEAN_ANOMALY":265.1283,"EPHEMERIS_TYPE":0,"CLASSIFICATION_TYPE":"U","NORAD_CAT_ID":48044,"ELEMENT_SET_NO":999,"REV_AT_EPOCH":25128,"BSTAR":-0.00015448,"MEAN_MOTION_DOT":-4.4e-07,"MEAN_MOTION_DDOT":0.0},{"OBJECT_NAME":"ONEWEB-0154","OBJECT_ID":"2021-025D","EPOCH":"2026-05-30T22:44:43.244736","MEAN_MOTION":13.13468329,"ECCENTRICITY":0.0001715,"INCLINATION":87.8942,"RA_OF_ASC_NODE":323.6545,"ARG_OF_PERICENTER":91.8043,"MEAN_ANOMALY":268.3282,"EPHEMERIS_TYPE":0,"CLASSIFICATION_TYPE":"U","NORAD_CAT_ID":48045,"ELEMENT_SET_NO":999,"REV_AT_EPOCH":25124,"BSTAR":0.00013905000000000002,"MEAN_MOTION_DOT":6.4e-07,"MEAN_MOTION_DDOT":0.0}]